*******************************************************************************
JPL/HORIZONS                       1 Ceres                 2017-Aug-22 11:58:03
Rec #:     1 (+COV)   Soln.date: 2017-Apr-04_16:23:28   # obs: 5993 (1950-2017)
 
IAU76/J2000 helio. ecliptic osc. elements (au, days, deg., period=Julian yrs): 
 
  EPOCH=  2449731.5 ! 1995-Jan-14.00 (TDB)         Residual RMS= .3289         
   EC= .07610292126891821  QR= 2.556624726195814   TP= 2449823.0922807939      
   OM= 80.65851514365535   W=  71.44921526124109   IN= 10.60069567603618       
   A= 2.767218108003098    MA= 340.389084821267    ADIST= 2.977811489810382    
   PER= 4.60334            N= .214110998           ANGMOM= .028532632          
   DAN= 2.68615            DDN= 2.81946            L= 151.8082012              
   B= 10.0440306           MOID= 1.59241998        TP= 1995-Apr-15.5922807939  
 
Asteroid physical parameters (km, seconds, rotational period in hours):        
   GM= 62.6284             RAD= 469.7              ROTPER= 9.07417             
   H= 3.34                 G= .120                 B-V= .713                   
                           ALBEDO= .090            STYP= C                     
 
ASTEROID comments: 
1: soln ref.= JPL#34, OCC=0           radar(405 delay, 0 Dop.
2: source=ORB
*******************************************************************************
 
 
*******************************************************************************
Ephemeris / WWW_USER Tue Aug 22 11:58:03 2017 Pasadena, USA      / Horizons    
*******************************************************************************
Target body name: 1 Ceres                         {source: JPL#34}
Center body name: Earth (399)                     {source: DE431}
Center-site name: (user defined site below)
*******************************************************************************
Start time      : A.D. 2017-Oct-31 17:00:00.0000 UT      
Stop  time      : A.D. 2017-Nov-01 17:00:00.0000 UT      
Step-size       : 4 minutes
*******************************************************************************
Target pole/equ : IAU                             {East-longitude -}
Target radii    : 487.3 x 487.3 x 454.7 km        {Equator, meridian, pole}    
Center geodetic : 289.239440,-30.237778,2.7430000 {E-lon(deg),Lat(deg),Alt(km)}
Center cylindric: 289.239440,5517.39973,-3194.555 {E-lon(deg),Dxy(km),Dz(km)}
Center pole/equ : High-precision EOP model        {East-longitude +}
Center radii    : 6378.1 x 6378.1 x 6356.8 km     {Equator, meridian, pole}    
Target primary  : Sun
Vis. interferer : MOON (R_eq= 1737.400) km        {source: DE431}
Rel. light bend : Sun, EARTH                      {source: DE431}
Rel. lght bnd GM: 1.3271E+11, 3.9860E+05 km^3/s^2                              
Small-body perts: Yes                             {source: SB431-N16}
Atmos refraction: NO (AIRLESS)
RA format       : HMS
Time format     : CAL 
RTS-only print  : NO       
EOP file        : eop.170821.p171112                                           
EOP coverage    : DATA-BASED 1962-JAN-20 TO 2017-AUG-21. PREDICTS-> 2017-NOV-11
Units conversion: 1 au= 149597870.700 km, c= 299792.458 km/s, 1 day= 86400.0 s 
Table cut-offs 1: Elevation (-90.0deg=NO ),Airmass (>38.000=NO), Daylight (NO )
Table cut-offs 2: Solar elongation (  0.0,180.0=NO ),Local Hour Angle( 0.0=NO )
Table cut-offs 3: RA/DEC angular rate (     0.0=NO )                           
*******************************************************************************
Initial IAU76/J2000 heliocentric ecliptic osculating elements (au, days, deg.):
  EPOCH=  2449731.5 ! 1995-Jan-14.00 (TDB)         Residual RMS= .3289         
   EC= .07610292126891821  QR= 2.556624726195814   TP= 2449823.0922807939      
   OM= 80.65851514365535   W=  71.44921526124109   IN= 10.60069567603618       
  Equivalent ICRF heliocentric equatorial cartesian coordinates (au, au/d):
   X=-1.595314070299652E+00  Y= 1.679592434318194E+00  Z= 1.115015709161572E+00
  VX=-8.276811304306792E-03 VY=-7.202858709771250E-03 VZ=-1.698003095770422E-03
Asteroid physical parameters (km, seconds, rotational period in hours):        
   GM= 62.6284             RAD= 469.7              ROTPER= 9.07417             
   H= 3.34                 G= .120                 B-V= .713                   
                           ALBEDO= .090            STYP= C                     
********************************************************************************************************
 Date__(UT)__HR:MN:SC.fff     R.A.___(ICRF/J2000.0)___DEC dRA*cosD d(DEC)/dt a-mass mag_ex  APmag  S-brt
********************************************************************************************************
$$SOE
 2017-Oct-31 17:00:00.000 *   09 01 55.3295 +22 33 52.937 39.47240  -1.17174   n.a.   n.a.   8.50   6.87
 2017-Oct-31 17:04:00.000 *   09 01 55.5195 +22 33 52.862 39.48512  -1.17127   n.a.   n.a.   8.50   6.87
 2017-Oct-31 17:08:00.000 *   09 01 55.7096 +22 33 52.787 39.49785  -1.17070   n.a.   n.a.   8.50   6.87
 2017-Oct-31 17:12:00.000 *   09 01 55.8998 +22 33 52.712 39.51058  -1.17003   n.a.   n.a.   8.50   6.87
 2017-Oct-31 17:16:00.000 *   09 01 56.0900 +22 33 52.638 39.52330  -1.16927   n.a.   n.a.   8.50   6.87
 2017-Oct-31 17:20:00.000 *   09 01 56.2802 +22 33 52.563 39.53601  -1.16842   n.a.   n.a.   8.50   6.87
 2017-Oct-31 17:24:00.000 *   09 01 56.4706 +22 33 52.489 39.54870  -1.16748   n.a.   n.a.   8.50   6.87
 2017-Oct-31 17:28:00.000 *   09 01 56.6610 +22 33 52.414 39.56138  -1.16643   n.a.   n.a.   8.50   6.87
 2017-Oct-31 17:32:00.000 *   09 01 56.8514 +22 33 52.340 39.57403  -1.16530   n.a.   n.a.   8.50   6.87
 2017-Oct-31 17:36:00.000 *   09 01 57.0419 +22 33 52.265 39.58665  -1.16407   n.a.   n.a.   8.50   6.87
 2017-Oct-31 17:40:00.000 *   09 01 57.2325 +22 33 52.191 39.59924  -1.16275   n.a.   n.a.   8.50   6.87
 2017-Oct-31 17:44:00.000 *   09 01 57.4232 +22 33 52.117 39.61179  -1.16133   n.a.   n.a.   8.50   6.87
 2017-Oct-31 17:48:00.000 *   09 01 57.6139 +22 33 52.043 39.62430  -1.15982   n.a.   n.a.   8.50   6.87
 2017-Oct-31 17:52:00.000 *   09 01 57.8046 +22 33 51.969 39.63677  -1.15822   n.a.   n.a.   8.50   6.87
 2017-Oct-31 17:56:00.000 *   09 01 57.9954 +22 33 51.895 39.64918  -1.15652   n.a.   n.a.   8.50   6.87
 2017-Oct-31 18:00:00.000 *   09 01 58.1863 +22 33 51.822 39.66155  -1.15473   n.a.   n.a.   8.50   6.87
 2017-Oct-31 18:04:00.000 *   09 01 58.3773 +22 33 51.748 39.67385  -1.15285   n.a.   n.a.   8.50   6.87
 2017-Oct-31 18:08:00.000 *   09 01 58.5682 +22 33 51.675 39.68609  -1.15088   n.a.   n.a.   8.50   6.87
 2017-Oct-31 18:12:00.000 *   09 01 58.7593 +22 33 51.601 39.69827  -1.14882   n.a.   n.a.   8.50   6.87
 2017-Oct-31 18:16:00.000 *   09 01 58.9504 +22 33 51.528 39.71037  -1.14666   n.a.   n.a.   8.50   6.87
 2017-Oct-31 18:20:00.000 *   09 01 59.1416 +22 33 51.455 39.72240  -1.14442   n.a.   n.a.   8.50   6.87
 2017-Oct-31 18:24:00.000 *   09 01 59.3328 +22 33 51.382 39.73436  -1.14209   n.a.   n.a.   8.50   6.87
 2017-Oct-31 18:28:00.000 *   09 01 59.5241 +22 33 51.309 39.74622  -1.13967   n.a.   n.a.   8.50   6.87
 2017-Oct-31 18:32:00.000 *   09 01 59.7154 +22 33 51.237 39.75801  -1.13715   n.a.   n.a.   8.50   6.87
 2017-Oct-31 18:36:00.000 *   09 01 59.9068 +22 33 51.165 39.76970  -1.13455   n.a.   n.a.   8.50   6.87
 2017-Oct-31 18:40:00.000 *   09 02 00.0983 +22 33 51.092 39.78129  -1.13187   n.a.   n.a.   8.50   6.87
 2017-Oct-31 18:44:00.000 *   09 02 00.2898 +22 33 51.020 39.79279  -1.12910   n.a.   n.a.   8.50   6.87
 2017-Oct-31 18:48:00.000 *   09 02 00.4814 +22 33 50.949 39.80418  -1.12624   n.a.   n.a.   8.50   6.87
 2017-Oct-31 18:52:00.000 *   09 02 00.6730 +22 33 50.877 39.81547  -1.12329   n.a.   n.a.   8.50   6.87
 2017-Oct-31 18:56:00.000 *   09 02 00.8647 +22 33 50.805 39.82664  -1.12026   n.a.   n.a.   8.50   6.87
 2017-Oct-31 19:00:00.000 *   09 02 01.0564 +22 33 50.734 39.83770  -1.11715   n.a.   n.a.   8.50   6.87
 2017-Oct-31 19:04:00.000 *   09 02 01.2482 +22 33 50.663 39.84865  -1.11395   n.a.   n.a.   8.50   6.87
 2017-Oct-31 19:08:00.000 *   09 02 01.4400 +22 33 50.592 39.85947  -1.11068   n.a.   n.a.   8.50   6.87
 2017-Oct-31 19:12:00.000 *   09 02 01.6319 +22 33 50.522 39.87016  -1.10732   n.a.   n.a.   8.50   6.87
 2017-Oct-31 19:16:00.000 *   09 02 01.8238 +22 33 50.451 39.88073  -1.10387   n.a.   n.a.   8.50   6.87
 2017-Oct-31 19:20:00.000 *   09 02 02.0158 +22 33 50.381 39.89116  -1.10035   n.a.   n.a.   8.50   6.87
 2017-Oct-31 19:24:00.000 *   09 02 02.2079 +22 33 50.311 39.90145  -1.09676   n.a.   n.a.   8.50   6.87
 2017-Oct-31 19:28:00.000 *   09 02 02.4000 +22 33 50.242 39.91161  -1.09308   n.a.   n.a.   8.50   6.87
 2017-Oct-31 19:32:00.000 *   09 02 02.5921 +22 33 50.172 39.92162  -1.08933   n.a.   n.a.   8.50   6.87
 2017-Oct-31 19:36:00.000 *m  09 02 02.7843 +22 33 50.103 39.93148  -1.08550   n.a.   n.a.   8.50   6.87
 2017-Oct-31 19:40:00.000 *m  09 02 02.9765 +22 33 50.034 39.94119  -1.08159   n.a.   n.a.   8.50   6.87
 2017-Oct-31 19:44:00.000 *m  09 02 03.1688 +22 33 49.966 39.95075  -1.07761   n.a.   n.a.   8.50   6.87
 2017-Oct-31 19:48:00.000 *m  09 02 03.3611 +22 33 49.897 39.96015  -1.07356   n.a.   n.a.   8.50   6.87
 2017-Oct-31 19:52:00.000 *m  09 02 03.5535 +22 33 49.829 39.96938  -1.06944   n.a.   n.a.   8.50   6.87
 2017-Oct-31 19:56:00.000 *m  09 02 03.7459 +22 33 49.762 39.97846  -1.06524   n.a.   n.a.   8.50   6.87
 2017-Oct-31 20:00:00.000 *m  09 02 03.9383 +22 33 49.694 39.98736  -1.06098   n.a.   n.a.   8.50   6.87
 2017-Oct-31 20:04:00.000 *m  09 02 04.1308 +22 33 49.627 39.99610  -1.05665   n.a.   n.a.   8.50   6.87
 2017-Oct-31 20:08:00.000 *m  09 02 04.3234 +22 33 49.560 40.00466  -1.05225   n.a.   n.a.   8.50   6.87
 2017-Oct-31 20:12:00.000 *m  09 02 04.5159 +22 33 49.493 40.01305  -1.04778   n.a.   n.a.   8.50   6.87
 2017-Oct-31 20:16:00.000 *m  09 02 04.7086 +22 33 49.427 40.02125  -1.04325   n.a.   n.a.   8.50   6.87
